STARLINK-2613           
1 48353U 21038A   26083.53796743  .00004248  00000+0  15548-3 0  9993
2 48353  53.1562 289.1541 0000862 105.4030 254.7066 15.30195166269358
STARLINK-2674           
1 48354U 21038B   26083.54219354  .00007189  00000+0  25459-3 0  9992
2 48354  53.1574 289.2123 0001105 102.1914 257.9211 15.30203796269351
STARLINK-2635           
1 48355U 21038C   26083.27039391  .00007814  00000+0  27570-3 0  9995
2 48355  53.1584 290.4090 0001340 102.3372 257.7779 15.30195379269311
STARLINK-2637           
1 48356U 21038D   26082.87535123  .00009682  00000+0  33865-3 0  9994
2 48356  53.1576 292.2514 0001550 102.9112 257.2062 15.30193724269250
STARLINK-2636           
1 48357U 21038E   26082.86797047  .00008767  00000+0  30782-3 0  9997
2 48357  53.1588 292.2694 0001644  92.2719 267.8470 15.30194825269254
STARLINK-2624           
1 48358U 21038F   26082.87007883 -.00000101  00000+0  87377-5 0  9990
2 48358  53.1615 292.2955 0001436  98.5066 261.6098 15.30184888269244
STARLINK-2628           
1 48359U 21038G   26082.86481334  .00009370  00000+0  32810-3 0  9993
2 48359  53.1570 292.3006 0001447  96.4557 263.6609 15.30197337269240
STARLINK-2622           
1 48360U 21038H   26082.86164618  .00002927  00000+0  11093-3 0  9999
2 48360  53.1587 292.3233 0001528  92.2104 267.9072 15.30194229269242
STARLINK-2591           
1 48361U 21038J   26082.85532888  .00003700  00000+0  13710-3 0  9995
2 48361  53.1584 292.3219 0001064  81.8256 278.2865 15.30174741269243
STARLINK-2578           
1 48362U 21038K   26083.27355398  .00009056  00000+0  31754-3 0  9990
2 48362  53.1584 290.4042 0001114 100.1380 259.9747 15.30196322269318
STARLINK-2611           
1 48364U 21038M   26083.53694006  .00004554  00000+0  16581-3 0  9992
2 48364  53.1587 278.8444 0001080  91.5889 268.5235 15.30198885269503
STARLINK-2608           
1 48365U 21038N   26083.52431480  .00006626  00000+0  23564-3 0  9998
2 48365  53.1579 278.9771 0001366  95.4428 264.6729 15.30200772269502
STARLINK-2643           
1 48367U 21038Q   26083.56165810  .00010318  00000+0  36001-3 0  9998
2 48367  53.1578 276.2955 0000865  71.7618 288.3477 15.30198902269536
STARLINK-2623           
1 48368U 21038R   26083.55694329  .00017720  00000+0  60820-3 0  9990
2 48368  53.1587 278.7272 0001183  84.3876 275.7260 15.30241065269502
STARLINK-2621           
1 48370U 21038T   26083.53377867  .00004310  00000+0  15760-3 0  9990
2 48370  53.1585 278.8344 0001528  77.3149 282.8022 15.30194375269496
STARLINK-2589           
1 48371U 21038U   26082.81215471  .00001032  00000+0  46976-4 0  9995
2 48371  53.1588 282.1883 0001486  93.6386 266.4784 15.30193794269388
