[{"OBJECT_NAME":"STARLINK-2613","OBJECT_ID":"2021-038A","EPOCH":"2026-03-24T12:54:40.385952","MEAN_MOTION":15.30195166,"ECCENTRICITY":8.62e-5,"INCLINATION":53.1562,"RA_OF_ASC_NODE":289.1541,"ARG_OF_PERICENTER":105.403,"MEAN_ANOMALY":254.7066,"EPHEMERIS_TYPE":0,"CLASSIFICATION_TYPE":"U","NORAD_CAT_ID":48353,"ELEMENT_SET_NO":999,"REV_AT_EPOCH":26935,"BSTAR":0.00015548,"MEAN_MOTION_DOT":4.248e-5,"MEAN_MOTION_DDOT":0},{"OBJECT_NAME":"STARLINK-2674","OBJECT_ID":"2021-038B","EPOCH":"2026-03-24T13:00:45.521856","MEAN_MOTION":15.30203796,"ECCENTRICITY":0.0001105,"INCLINATION":53.1574,"RA_OF_ASC_NODE":289.2123,"ARG_OF_PERICENTER":102.1914,"MEAN_ANOMALY":257.9211,"EPHEMERIS_TYPE":0,"CLASSIFICATION_TYPE":"U","NORAD_CAT_ID":48354,"ELEMENT_SET_NO":999,"REV_AT_EPOCH":26935,"BSTAR":0.00025459,"MEAN_MOTION_DOT":7.189e-5,"MEAN_MOTION_DDOT":0},{"OBJECT_NAME":"STARLINK-2635","OBJECT_ID":"2021-038C","EPOCH":"2026-03-24T06:29:22.033824","MEAN_MOTION":15.30195379,"ECCENTRICITY":0.000134,"INCLINATION":53.1584,"RA_OF_ASC_NODE":290.409,"ARG_OF_PERICENTER":102.3372,"MEAN_ANOMALY":257.7779,"EPHEMERIS_TYPE":0,"CLASSIFICATION_TYPE":"U","NORAD_CAT_ID":48355,"ELEMENT_SET_NO":999,"REV_AT_EPOCH":26931,"BSTAR":0.0002757,"MEAN_MOTION_DOT":7.814e-5,"MEAN_MOTION_DDOT":0},{"OBJECT_NAME":"STARLINK-2637","OBJECT_ID":"2021-038D","EPOCH":"2026-03-23T21:00:30.346272","MEAN_MOTION":15.30193724,"ECCENTRICITY":0.00015509,"INCLINATION":53.1576,"RA_OF_ASC_NODE":292.2514,"ARG_OF_PERICENTER":102.9112,"MEAN_ANOMALY":257.2062,"EPHEMERIS_TYPE":0,"CLASSIFICATION_TYPE":"U","NORAD_CAT_ID":48356,"ELEMENT_SET_NO":999,"REV_AT_EPOCH":26925,"BSTAR":0.00033865225,"MEAN_MOTION_DOT":9.682e-5,"MEAN_MOTION_DDOT":0},{"OBJECT_NAME":"STARLINK-2636","OBJECT_ID":"2021-038E","EPOCH":"2026-03-23T20:49:52.648608","MEAN_MOTION":15.30194825,"ECCENTRICITY":0.00016447,"INCLINATION":53.1588,"RA_OF_ASC_NODE":292.2694,"ARG_OF_PERICENTER":92.2719,"MEAN_ANOMALY":267.847,"EPHEMERIS_TYPE":0,"CLASSIFICATION_TYPE":"U","NORAD_CAT_ID":48357,"ELEMENT_SET_NO":999,"REV_AT_EPOCH":26925,"BSTAR":0.00030782074,"MEAN_MOTION_DOT":8.767e-5,"MEAN_MOTION_DDOT":0},{"OBJECT_NAME":"STARLINK-2624","OBJECT_ID":"2021-038F","EPOCH":"2026-03-23T20:52:54.810912","MEAN_MOTION":15.30184888,"ECCENTRICITY":0.00014369,"INCLINATION":53.1615,"RA_OF_ASC_NODE":292.2955,"ARG_OF_PERICENTER":98.5066,"MEAN_ANOMALY":261.6098,"EPHEMERIS_TYPE":0,"CLASSIFICATION_TYPE":"U","NORAD_CAT_ID":48358,"ELEMENT_SET_NO":999,"REV_AT_EPOCH":26924,"BSTAR":8.737702e-6,"MEAN_MOTION_DOT":-1.01e-6,"MEAN_MOTION_DDOT":0},{"OBJECT_NAME":"STARLINK-2628","OBJECT_ID":"2021-038G","EPOCH":"2026-03-23T20:45:19.872576","MEAN_MOTION":15.30197337,"ECCENTRICITY":0.00014478,"INCLINATION":53.157,"RA_OF_ASC_NODE":292.3006,"ARG_OF_PERICENTER":96.4557,"MEAN_ANOMALY":263.6609,"EPHEMERIS_TYPE":0,"CLASSIFICATION_TYPE":"U","NORAD_CAT_ID":48359,"ELEMENT_SET_NO":999,"REV_AT_EPOCH":26924,"BSTAR":0.00032810142,"MEAN_MOTION_DOT":9.37e-5,"MEAN_MOTION_DDOT":0},{"OBJECT_NAME":"STARLINK-2622","OBJECT_ID":"2021-038H","EPOCH":"2026-03-23T20:40:46.229952","MEAN_MOTION":15.30194229,"ECCENTRICITY":0.0001528,"INCLINATION":53.1587,"RA_OF_ASC_NODE":292.3233,"ARG_OF_PERICENTER":92.2104,"MEAN_ANOMALY":267.9072,"EPHEMERIS_TYPE":0,"CLASSIFICATION_TYPE":"U","NORAD_CAT_ID":48360,"ELEMENT_SET_NO":999,"REV_AT_EPOCH":26924,"BSTAR":0.00011093266,"MEAN_MOTION_DOT":2.927e-5,"MEAN_MOTION_DDOT":0},{"OBJECT_NAME":"STARLINK-2591","OBJECT_ID":"2021-038J","EPOCH":"2026-03-23T20:31:40.415232","MEAN_MOTION":15.30174741,"ECCENTRICITY":0.00010645,"INCLINATION":53.1584,"RA_OF_ASC_NODE":292.3219,"ARG_OF_PERICENTER":81.8256,"MEAN_ANOMALY":278.2865,"EPHEMERIS_TYPE":0,"CLASSIFICATION_TYPE":"U","NORAD_CAT_ID":48361,"ELEMENT_SET_NO":999,"REV_AT_EPOCH":26924,"BSTAR":0.00013709592,"MEAN_MOTION_DOT":3.7e-5,"MEAN_MOTION_DDOT":0},{"OBJECT_NAME":"STARLINK-2578","OBJECT_ID":"2021-038K","EPOCH":"2026-03-24T06:33:55.063872","MEAN_MOTION":15.30196322,"ECCENTRICITY":0.0001114,"INCLINATION":53.1584,"RA_OF_ASC_NODE":290.4042,"ARG_OF_PERICENTER":100.138,"MEAN_ANOMALY":259.9747,"EPHEMERIS_TYPE":0,"CLASSIFICATION_TYPE":"U","NORAD_CAT_ID":48362,"ELEMENT_SET_NO":999,"REV_AT_EPOCH":26931,"BSTAR":0.00031754,"MEAN_MOTION_DOT":9.056e-5,"MEAN_MOTION_DDOT":0},{"OBJECT_NAME":"STARLINK-2611","OBJECT_ID":"2021-038M","EPOCH":"2026-03-24T12:53:11.621184","MEAN_MOTION":15.30198885,"ECCENTRICITY":0.000108,"INCLINATION":53.1587,"RA_OF_ASC_NODE":278.8444,"ARG_OF_PERICENTER":91.5889,"MEAN_ANOMALY":268.5235,"EPHEMERIS_TYPE":0,"CLASSIFICATION_TYPE":"U","NORAD_CAT_ID":48364,"ELEMENT_SET_NO":999,"REV_AT_EPOCH":26950,"BSTAR":0.00016581,"MEAN_MOTION_DOT":4.554e-5,"MEAN_MOTION_DDOT":0},{"OBJECT_NAME":"STARLINK-2608","OBJECT_ID":"2021-038N","EPOCH":"2026-03-24T12:35:00.798720","MEAN_MOTION":15.30200772,"ECCENTRICITY":0.0001366,"INCLINATION":53.1579,"RA_OF_ASC_NODE":278.9771,"ARG_OF_PERICENTER":95.4428,"MEAN_ANOMALY":264.6729,"EPHEMERIS_TYPE":0,"CLASSIFICATION_TYPE":"U","NORAD_CAT_ID":48365,"ELEMENT_SET_NO":999,"REV_AT_EPOCH":26950,"BSTAR":0.00023564,"MEAN_MOTION_DOT":6.626e-5,"MEAN_MOTION_DDOT":0},{"OBJECT_NAME":"STARLINK-2643","OBJECT_ID":"2021-038Q","EPOCH":"2026-03-24T13:28:47.259840","MEAN_MOTION":15.30198902,"ECCENTRICITY":8.65e-5,"INCLINATION":53.1578,"RA_OF_ASC_NODE":276.2955,"ARG_OF_PERICENTER":71.7618,"MEAN_ANOMALY":288.3477,"EPHEMERIS_TYPE":0,"CLASSIFICATION_TYPE":"U","NORAD_CAT_ID":48367,"ELEMENT_SET_NO":999,"REV_AT_EPOCH":26953,"BSTAR":0.00036001,"MEAN_MOTION_DOT":0.00010318,"MEAN_MOTION_DDOT":0},{"OBJECT_NAME":"STARLINK-2623","OBJECT_ID":"2021-038R","EPOCH":"2026-03-24T13:21:59.900256","MEAN_MOTION":15.30241065,"ECCENTRICITY":0.0001183,"INCLINATION":53.1587,"RA_OF_ASC_NODE":278.7272,"ARG_OF_PERICENTER":84.3876,"MEAN_ANOMALY":275.726,"EPHEMERIS_TYPE":0,"CLASSIFICATION_TYPE":"U","NORAD_CAT_ID":48368,"ELEMENT_SET_NO":999,"REV_AT_EPOCH":26950,"BSTAR":0.0006082,"MEAN_MOTION_DOT":0.0001772,"MEAN_MOTION_DDOT":0},{"OBJECT_NAME":"STARLINK-2621","OBJECT_ID":"2021-038T","EPOCH":"2026-03-24T12:48:38.477088","MEAN_MOTION":15.30194375,"ECCENTRICITY":0.0001528,"INCLINATION":53.1585,"RA_OF_ASC_NODE":278.8344,"ARG_OF_PERICENTER":77.3149,"MEAN_ANOMALY":282.8022,"EPHEMERIS_TYPE":0,"CLASSIFICATION_TYPE":"U","NORAD_CAT_ID":48370,"ELEMENT_SET_NO":999,"REV_AT_EPOCH":26949,"BSTAR":0.0001576,"MEAN_MOTION_DOT":4.31e-5,"MEAN_MOTION_DDOT":0},{"OBJECT_NAME":"STARLINK-2589","OBJECT_ID":"2021-038U","EPOCH":"2026-03-23T19:29:30.166944","MEAN_MOTION":15.30193794,"ECCENTRICITY":0.00014869,"INCLINATION":53.1588,"RA_OF_ASC_NODE":282.1883,"ARG_OF_PERICENTER":93.6386,"MEAN_ANOMALY":266.4784,"EPHEMERIS_TYPE":0,"CLASSIFICATION_TYPE":"U","NORAD_CAT_ID":48371,"ELEMENT_SET_NO":999,"REV_AT_EPOCH":26938,"BSTAR":4.6975619e-5,"MEAN_MOTION_DOT":1.032e-5,"MEAN_MOTION_DDOT":0}]
